[{"OBJECT_NAME":"CS2","OBJECT_ID":"2021-088C","EPOCH":"2026-03-09T17:38:11.846112","MEAN_MOTION":15.3325593,"ECCENTRICITY":0.00116375,"INCLINATION":97.3928,"RA_OF_ASC_NODE":134.2907,"ARG_OF_PERICENTER":82.3491,"MEAN_ANOMALY":277.9072,"EPHEMERIS_TYPE":0,"CLASSIFICATION_TYPE":"U","NORAD_CAT_ID":49262,"ELEMENT_SET_NO":999,"REV_AT_EPOCH":24526,"BSTAR":0.0005617759,"MEAN_MOTION_DOT":0.00018033,"MEAN_MOTION_DDOT":0},{"OBJECT_NAME":"STARLINK-34300","OBJECT_ID":"2025-117R","EPOCH":"2026-03-09T04:44:33.704448","MEAN_MOTION":15.30181729,"ECCENTRICITY":0.00012557,"INCLINATION":53.161,"RA_OF_ASC_NODE":41.6565,"ARG_OF_PERICENTER":91.9459,"MEAN_ANOMALY":268.1686,"EPHEMERIS_TYPE":0,"CLASSIFICATION_TYPE":"U","NORAD_CAT_ID":64218,"ELEMENT_SET_NO":999,"REV_AT_EPOCH":4445,"BSTAR":0.0012626008,"MEAN_MOTION_DOT":0.00037202,"MEAN_MOTION_DDOT":0}]
