CS2                     
1 49262U 21088C   26068.73485932  .00018033  00000+0  56178-3 0  9999
2 49262  97.3928 134.2907 0011637  82.3491 277.9072 15.33255930245263
STARLINK-34300          
1 64218U 25117R   26068.19761232  .00037202  00000+0  12626-2 0  9992
2 64218  53.1610  41.6565 0001255  91.9459 268.1686 15.30181729 44457
